{
  "type": "FeatureCollection",
  "features": [
    {
      "type": "Feature",
      "properties": {
        "name": "India"
      },
      "geometry": {
        "type": "Polygon",
        "coordinates": [[
          [68.186, 7.500],
          [68.143, 8.700],
          [68.182, 9.820],
          [68.330, 10.990],
          [68.965, 12.160],
          [69.780, 13.320],
          [70.660, 14.580],
          [71.620, 15.920],
          [72.490, 17.380],
          [73.330, 18.690],
          [74.150, 19.990],
          [74.960, 21.260],
          [75.820, 22.580],
          [76.520, 23.990],
          [77.180, 25.280],
          [77.840, 26.420],
          [78.500, 27.690],
          [79.180, 28.920],
          [79.760, 30.320],
          [80.290, 31.380],
          [81.010, 32.440],
          [81.910, 33.430],
          [82.720, 34.250],
          [83.330, 34.950],
          [84.120, 35.860],
          [84.970, 36.700],
          [85.840, 37.400],
          [86.750, 37.980],
          [87.660, 38.260],
          [88.610, 38.420],
          [89.620, 38.470],
          [90.700, 38.500],
          [91.720, 38.370],
          [92.670, 37.870],
          [93.470, 37.020],
          [94.100, 36.250],
          [94.420, 35.360],
          [94.130, 34.330],
          [93.450, 33.320],
          [92.680, 32.600],
          [91.860, 31.890],
          [90.970, 31.180],
          [89.940, 30.290],
          [88.770, 29.400],
          [87.640, 28.620],
          [86.480, 27.930],
          [85.290, 27.230],
          [84.060, 26.560],
          [82.760, 25.830],
          [81.500, 25.170],
          [80.320, 24.410],
          [79.180, 23.700],
          [78.060, 22.980],
          [77.000, 22.250],
          [75.940, 21.450],
          [74.860, 20.620],
          [73.820, 19.780],
          [72.950, 18.940],
          [72.200, 18.150],
          [71.600, 17.330],
          [71.130, 16.500],
          [70.610, 15.620],
          [70.180, 14.630],
          [69.740, 13.620],
          [69.120, 12.740],
          [68.540, 11.920],
          [68.280, 10.860],
          [68.190, 9.760],
          [68.170, 8.760],
          [68.186, 7.500]
        ]]
      }
    }
  ]
}
